"{\n    \"CCSDS_OMM_VERS\": \"2.0\",\n    \"COMMENT\": \"GENERATED VIA SPACE-TRACK.ORG API\",\n    \"CREATION_DATE\": \"2025-08-28T23:13:47\",\n    \"ORIGINATOR\": \"18 SPCS\",\n    \"OBJECT_NAME\": \"GALILEO 17 (26D)\",\n    \"OBJECT_ID\": \"2016-069C\",\n    \"CENTER_NAME\": \"EARTH\",\n    \"REF_FRAME\": \"TEME\",\n    \"TIME_SYSTEM\": \"UTC\",\n    \"MEAN_ELEMENT_THEORY\": \"SGP4\",\n    \"EPOCH\": \"2025-08-28T06:17:17.560320\",\n    \"MEAN_MOTION\": \"1.7047446923\",\n    \"ECCENTRICITY\": \"0.00023436959\",\n    \"INCLINATION\": \"55.313531\",\n    \"RA_OF_ASC_NODE\": \"109.20241\",\n    \"ARG_OF_PERICENTER\": \"314.53496\",\n    \"MEAN_ANOMALY\": \"45.536488\",\n    \"EPHEMERIS_TYPE\": \"0\",\n    \"CLASSIFICATION_TYPE\": \"U\",\n    \"NORAD_CAT_ID\": \"41861\",\n    \"ELEMENT_SET_NO\": \"999\",\n    \"REV_AT_EPOCH\": \"5452\",\n    \"BSTAR\": \"0\",\n    \"MEAN_MOTION_DOT\": \"-0.000000072418\",\n    \"MEAN_MOTION_DDOT\": \"0\",\n    \"TLE_LINE0\": \"0 GALILEO 17 (26D)\",\n    \"TLE_LINE1\": \"1 41861U 16069C   25240.26200880 -.00000007  00000-0  00000-0 0  9999\",\n    \"TLE_LINE2\": \"2 41861  55.3135 109.2024 0002344 314.5350  45.5365  1.70474469 54522\",\n    \"SEMIMAJOR_AXIS\": \"29600.266\",\n    \"PERIOD\": \"844.701\",\n    \"APOAPSIS\": \"23229.068\",\n    \"PERIAPSIS\": \"23215.193\",\n    \"OBJECT_TYPE\": \"PAYLOAD\",\n    \"DECAYED\": \"0\"\n}"